{"type": "FeatureCollection", "features": [ {"type": "Feature", "properties": {"norad_id": 35060, "name": "COSMOS 2251 DEB", "group": "cosmos-2251-debris", "lat": -47.78734462356608, "lon": 54.72652348905423, "alt_km": 755.0107433175326, "timestamp": "2025-12-27T20:30:59.675862+00:00", "meta": {"OBJECT_NAME": "COSMOS 2251 DEB", "OBJECT_ID": "1993-036AHP", "EPOCH": "2025-12-27T07:47:30.006240", "MEAN_MOTION": 14.41629901, "ECCENTRICITY": 0.001872, "INCLINATION": 74.0355, "RA_OF_ASC_NODE": 217.3137, "ARG_OF_PERICENTER": 301.492, "MEAN_ANOMALY": 58.4406, "EPHEMERIS_TYPE": 0, "CLASSIFICATION_TYPE": "U", "NORAD_CAT_ID": 35060, "ELEMENT_SET_NO": 999, "REV_AT_EPOCH": 87452, "BSTAR": 0.00030369, "MEAN_MOTION_DOT": 9.64e-06, "MEAN_MOTION_DDOT": 0}, "tle": {"line1": "1 35060U 93036AHP 25361.32465285  .00000964  00000+0  30369-3 0  9999", "line2": "2 35060  74.0355 217.3137 0018720 301.4920  58.4406 14.41629901874521"}}, "geometry": {"type": "Point", "coordinates": [54.72652348905423, -47.78734462356608]}}, {"type": "Feature", "properties": {"norad_id": 35061, "name": "COSMOS 2251 DEB", "group": "cosmos-2251-debris", "lat": 69.25805111411037, "lon": 47.472412037019026, "alt_km": 655.5814898877552, "timestamp": "2025-12-27T20:30:59.675872+00:00", "meta": {"OBJECT_NAME": "COSMOS 2251 DEB", "OBJECT_ID": "1993-036AHQ", "EPOCH": "2025-12-27T11:52:19.983072", "MEAN_MOTION": 14.67955039, "ECCENTRICITY": 0.0039821, "INCLINATION": 74.0457, "RA_OF_ASC_NODE": 277.2278, "ARG_OF_PERICENTER": 24.0903, "MEAN_ANOMALY": 336.2118, "EPHEMERIS_TYPE": 0, "CLASSIFICATION_TYPE": "U", "NORAD_CAT_ID": 35061, "ELEMENT_SET_NO": 999, "REV_AT_EPOCH": 88791, "BSTAR": 0.00086767, "MEAN_MOTION_DOT": 4.999e-05, "MEAN_MOTION_DDOT": 0}, "tle": {"line1": "1 35061U 93036AHQ 25361.49467573  .00004999  00000+0  86767-3 0  9995", "line2": "2 35061  74.0457 277.2278 0039821  24.0903 336.2118 14.67955039887916"}}, "geometry": {"type": "Point", "coordinates": [47.472412037019026, 69.25805111411037]}}, {"type": "Feature", "properties": {"norad_id": 35062, "name": "COSMOS 2251 DEB", "group": "cosmos-2251-debris", "lat": -55.20935211211694, "lon": -89.59964997487153, "alt_km": 912.1674112872461, "timestamp": "2025-12-27T20:30:59.675883+00:00", "meta": {"OBJECT_NAME": "COSMOS 2251 DEB", "OBJECT_ID": "1993-036AHR", "EPOCH": "2025-12-27T04:13:13.663776", "MEAN_MOTION": 14.23044847, "ECCENTRICITY": 0.01258352, "INCLINATION": 74.0787, "RA_OF_ASC_NODE": 67.3599, "ARG_OF_PERICENTER": 62.5897, "MEAN_ANOMALY": 298.7984, "EPHEMERIS_TYPE": 0, "CLASSIFICATION_TYPE": "U", "NORAD_CAT_ID": 35062, "ELEMENT_SET_NO": 999, "REV_AT_EPOCH": 85704, "BSTAR": 0.0017191343, "MEAN_MOTION_DOT": 4.182e-05, "MEAN_MOTION_DDOT": 0}, "tle": {"line1": "1 35062U 93036AHR 25361.17585259  .00004182  00000+0  17191-2 0  9991", "line2": "2 35062  74.0787  67.3599 0125835  62.5897 298.7984 14.23044847857049"}}, "geometry": {"type": "Point", "coordinates": [-89.59964997487153, -55.20935211211694]}}, {"type": "Feature", "properties": {"norad_id": 35065, "name": "COSMOS 2251 DEB", "group": "cosmos-2251-debris", "lat": 72.51874424418226, "lon": -128.37510932021266, "alt_km": 745.1932318081308, "timestamp": "2025-12-27T20:30:59.675893+00:00", "meta": {"OBJECT_NAME": "COSMOS 2251 DEB", "OBJECT_ID": "1993-036AHU", "EPOCH": "2025-12-26T10:55:13.836864", "MEAN_MOTION": 14.45764248, "ECCENTRICITY": 0.0020358, "INCLINATION": 74.0178, "RA_OF_ASC_NODE": 168.7315, "ARG_OF_PERICENTER": 291.8587, "MEAN_ANOMALY": 68.0405, "EPHEMERIS_TYPE": 0, "CLASSIFICATION_TYPE": "U", "NORAD_CAT_ID": 35065, "ELEMENT_SET_NO": 999, "REV_AT_EPOCH": 68549, "BSTAR": 0.00042895, "MEAN_MOTION_DOT": 1.498e-05, "MEAN_MOTION_DDOT": 0}, "tle": {"line1": "1 35065U 93036AHU 25360.45502126  .00001498  00000+0  42895-3 0  9993", "line2": "2 35065  74.0178 168.7315 0020358 291.8587  68.0405 14.45764248685497"}}, "geometry": {"type": "Point", "coordinates": [-128.37510932021266, 72.51874424418226]}}, {"type": "Feature", "properties": {"norad_id": 35071, "name": "COSMOS 2251 DEB", "group": "cosmos-2251-debris", "lat": -26.466037435620507, "lon": -29.401383675519746, "alt_km": 607.9100781913648, "timestamp": "2025-12-27T20:30:59.675903+00:00", "meta": {"OBJECT_NAME": "COSMOS 2251 DEB", "OBJECT_ID": "1993-036AJA", "EPOCH": "2025-12-27T02:02:07.791360", "MEAN_MOTION": 15.0373425, "ECCENTRICITY": 0.00685362, "INCLINATION": 73.9327, "RA_OF_ASC_NODE": 143.9325, "ARG_OF_PERICENTER": 36.008, "MEAN_ANOMALY": 324.5696, "EPHEMERIS_TYPE": 0, "CLASSIFICATION_TYPE": "U", "NORAD_CAT_ID": 35071, "ELEMENT_SET_NO": 999, "REV_AT_EPOCH": 67752, "BSTAR": 0.00090039747, "MEAN_MOTION_DOT": 0.00012992, "MEAN_MOTION_DDOT": 0}, "tle": {"line1": "1 35071U 93036AJA 25361.08481240  .00012992  00000+0  90040-3 0  9999", "line2": "2 35071  73.9327 143.9325 0068536  36.0080 324.5696 15.03734250677523"}}, "geometry": {"type": "Point", "coordinates": [-29.401383675519746, -26.466037435620507]}}, {"type": "Feature", "properties": {"norad_id": 35073, "name": "COSMOS 2251 DEB", "group": "cosmos-2251-debris", "lat": -2.876511032458526, "lon": 120.56117178511077, "alt_km": 570.5366333410502, "timestamp": "2025-12-27T20:30:59.675914+00:00", "meta": {"OBJECT_NAME": "COSMOS 2251 DEB", "OBJECT_ID": "1993-036AJC", "EPOCH": "2025-12-26T13:19:39.449280", "MEAN_MOTION": 15.01663707, "ECCENTRICITY": 0.0011423, "INCLINATION": 74.0005, "RA_OF_ASC_NODE": 302.3878, "ARG_OF_PERICENTER": 45.8819, "MEAN_ANOMALY": 314.3306, "EPHEMERIS_TYPE": 0, "CLASSIFICATION_TYPE": "U", "NORAD_CAT_ID": 35073, "ELEMENT_SET_NO": 999, "REV_AT_EPOCH": 67686, "BSTAR": 0.0034127, "MEAN_MOTION_DOT": 0.00044647, "MEAN_MOTION_DDOT": 0}, "tle": {"line1": "1 35073U 93036AJC 25360.55531770  .00044647  00000+0  34127-2 0  9991", "line2": "2 35073  74.0005 302.3878 0011423  45.8819 314.3306 15.01663707676862"}}, "geometry": {"type": "Point", "coordinates": [120.56117178511077, -2.876511032458526]}}, {"type": "Feature", "properties": {"norad_id": 35284, "name": "COSMOS 2251 DEB", "group": "cosmos-2251-debris", "lat": 73.63946258691769, "lon": -20.387027866074323, "alt_km": 766.399115045052, "timestamp": "2025-12-27T20:30:59.675924+00:00", "meta": {"OBJECT_NAME": "COSMOS 2251 DEB", "OBJECT_ID": "1993-036AJN", "EPOCH": "2025-12-26T15:50:56.704128", "MEAN_MOTION": 14.38332344, "ECCENTRICITY": 0.0017235, "INCLINATION": 74.0481, "RA_OF_ASC_NODE": 238.7931, "ARG_OF_PERICENTER": 313.4165, "MEAN_ANOMALY": 77.5805, "EPHEMERIS_TYPE": 0, "CLASSIFICATION_TYPE": "U", "NORAD_CAT_ID": 35284, "ELEMENT_SET_NO": 999, "REV_AT_EPOCH": 65726, "BSTAR": 0.00015481, "MEAN_MOTION_DOT": 4.46e-06, "MEAN_MOTION_DDOT": 0}, "tle": {"line1": "1 35284U 93036AJN 25360.66037852  .00000446  00000+0  15481-3 0  9991", "line2": "2 35284  74.0481 238.7931 0017235 313.4165  77.5805 14.38332344657265"}}, "geometry": {"type": "Point", "coordinates": [-20.387027866074323, 73.63946258691769]}}, {"type": "Feature", "properties": {"norad_id": 35287, "name": "COSMOS 2251 DEB", "group": "cosmos-2251-debris", "lat": 15.696919693517158, "lon": 63.74631777596754, "alt_km": 783.7946243696597, "timestamp": "2025-12-27T20:30:59.675934+00:00", "meta": {"OBJECT_NAME": "COSMOS 2251 DEB", "OBJECT_ID": "1993-036AJR", "EPOCH": "2025-12-26T11:11:15.829152", "MEAN_MOTION": 14.36387455, "ECCENTRICITY": 0.0018158, "INCLINATION": 74.0297, "RA_OF_ASC_NODE": 250.9133, "ARG_OF_PERICENTER": 344.6887, "MEAN_ANOMALY": 200.7795, "EPHEMERIS_TYPE": 0, "CLASSIFICATION_TYPE": "U", "NORAD_CAT_ID": 35287, "ELEMENT_SET_NO": 999, "REV_AT_EPOCH": 87089, "BSTAR": 0.00012553, "MEAN_MOTION_DOT": 3.42e-06, "MEAN_MOTION_DDOT": 0}, "tle": {"line1": "1 35287U 93036AJR 25360.46615543  .00000342  00000+0  12553-3 0  9993", "line2": "2 35287  74.0297 250.9133 0018158 344.6887 200.7795 14.36387455870890"}}, "geometry": {"type": "Point", "coordinates": [63.74631777596754, 15.696919693517158]}}, {"type": "Feature", "properties": {"norad_id": 35288, "name": "COSMOS 2251 DEB", "group": "cosmos-2251-debris", "lat": 71.77487789552394, "lon": 104.95297455517193, "alt_km": 680.8779035722864, "timestamp": "2025-12-27T20:30:59.675944+00:00", "meta": {"OBJECT_NAME": "COSMOS 2251 DEB", "OBJECT_ID": "1993-036AJS", "EPOCH": "2025-12-27T05:19:15.653280", "MEAN_MOTION": 14.65617392, "ECCENTRICITY": 0.0038996, "INCLINATION": 73.9496, "RA_OF_ASC_NODE": 347.1433, "ARG_OF_PERICENTER": 218.6925, "MEAN_ANOMALY": 141.1449, "EPHEMERIS_TYPE": 0, "CLASSIFICATION_TYPE": "U", "NORAD_CAT_ID": 35288, "ELEMENT_SET_NO": 999, "REV_AT_EPOCH": 88090, "BSTAR": 0.0012619, "MEAN_MOTION_DOT": 6.908e-05, "MEAN_MOTION_DDOT": 0}, "tle": {"line1": "1 35288U 93036AJS 25361.22170895  .00006908  00000+0  12619-2 0  9991", "line2": "2 35288  73.9496 347.1433 0038996 218.6925 141.1449 14.65617392880902"}}, "geometry": {"type": "Point", "coordinates": [104.95297455517193, 71.77487789552394]}}, {"type": "Feature", "properties": {"norad_id": 35290, "name": "COSMOS 2251 DEB", "group": "cosmos-2251-debris", "lat": 59.87242930593043, "lon": 179.95367236711166, "alt_km": 620.3680326093963, "timestamp": "2025-12-27T20:30:59.675954+00:00", "meta": {"OBJECT_NAME": "COSMOS 2251 DEB", "OBJECT_ID": "1993-036AJU", "EPOCH": "2025-12-27T08:38:42.760896", "MEAN_MOTION": 14.80763414, "ECCENTRICITY": 9.34e-05, "INCLINATION": 74.0049, "RA_OF_ASC_NODE": 30.5533, "ARG_OF_PERICENTER": 175.136, "MEAN_ANOMALY": 184.9826, "EPHEMERIS_TYPE": 0, "CLASSIFICATION_TYPE": "U", "NORAD_CAT_ID": 35290, "ELEMENT_SET_NO": 999, "REV_AT_EPOCH": 88174, "BSTAR": 0.0019416, "MEAN_MOTION_DOT": 0.00014959, "MEAN_MOTION_DDOT": 0}, "tle": {"line1": "1 35290U 93036AJU 25361.36021714  .00014959  00000+0  19416-2 0  9991", "line2": "2 35290  74.0049  30.5533 0000934 175.1360 184.9826 14.80763414881747"}}, "geometry": {"type": "Point", "coordinates": [179.95367236711166, 59.87242930593043]}}]}